IRIDIUM 8 [+]           
1 24792U 97020A   17261.23792673  .00000020  00000-0  31801-7 0  9990
2 24792  86.3917 279.7778 0002160  90.2816 269.8627 14.34219326 66302
IRIDIUM 7 [+]           
1 24793U 97020B   17261.09174900  .00000083  00000-0  22717-4 0  9994
2 24793  86.3923 280.1294 0002107  93.8566 266.2870 14.34227185 66281
IRIDIUM 6 [+]           
1 24794U 97020C   17261.15548574 -.00000063  00000-0 -29563-4 0  9990
2 24794  86.3920 280.0299 0002178  87.3905 272.7540 14.34218139 66281
IRIDIUM 5 [+]           
1 24795U 97020D   17261.14911248 -.00000096  00000-0 -41251-4 0  9996
2 24795  86.3912 280.0502 0002137  85.3228 274.8211 14.34219287 66565
IRIDIUM 4 [-]           
1 24796U 97020E   17261.14986167  .00000132  00000-0  39308-4 0  9998
2 24796  86.3915 278.9134 0002243  92.5351 309.3407 14.35175501 66608
IRIDIUM 914 [-]         
1 24836U 97030A   17261.24823251  .00000122  00000-0  33150-4 0  9997
2 24836  86.3911 295.3908 0003128 123.3473 236.8025 14.38777150200221
IRIDIUM 12 [+]          
1 24837U 97030B   17261.24319803  .00000131  00000-0  39655-4 0  9997
2 24837  86.3952 311.1937 0002220  94.7839 307.2645 14.34218919 60005
IRIDIUM 10 [+]          
1 24839U 97030D   17261.23045036  .00000119  00000-0  35368-4 0  9995
2 24839  86.3952 311.1783 0002236  95.3725 306.2830 14.34218374 60273
IRIDIUM 13 [+]          
1 24840U 97030E   17261.24142578  .00000107  00000-0  31024-4 0  9999
2 24840  86.3962 311.2987 0002250  72.6245 287.5197 14.34217937 60310
IRIDIUM 16 [-]          
1 24841U 97030F   17261.24901331  .00000160  00000-0  47508-4 0  9993
2 24841  86.4034 311.0437 0002611  35.6220 324.5151 14.36735540 60682
IRIDIUM 911 [-]         
1 24842U 97030G   17261.25001939  .00000128  00000-0  30784-4 0  9992
2 24842  86.4461 311.7724 0016074 136.1416 224.1065 14.44980382 66393
IRIDIUM 15 [+]          
1 24869U 97034A   17261.23406953  .00000100  00000-0  26255-4 0  9996
2 24869  86.4225 343.1559 0002517  89.8825 270.2662 14.38602592 57044
IRIDIUM 17 [-]          
1 24870U 97034B   17261.20984680  .00000079  00000-0  20589-4 0  9992
2 24870  86.4003 341.2030 0000413  99.9048 260.2195 14.35774038 57520
IRIDIUM 920 [-]         
1 24871U 97034C   17261.24297652  .00000107  00000-0  27799-4 0  9995
2 24871  86.3997 327.1532 0013047  42.8744 317.3470 14.39486695 59478
IRIDIUM 18 [+]          
1 24872U 97034D   17261.22774032  .00000021  00000-0  30347-6 0  9996
2 24872  86.4251 343.1806 0002709  85.6919 274.4588 14.38600091 57262
IRIDIUM 921 [-]         
1 24873U 97034E   17260.99885886  .00001177  00000-0  67382-4 0  9990
2 24873  86.3967  22.0967 0009301  47.1242 313.0776 15.11523851101836
IRIDIUM 26 [-]          
1 24903U 97043A   17260.95293166  .00000104  00000-0  29501-4 0  9994
2 24903  86.3991 215.9461 0002304  82.0559 278.0899 14.35272747 50800
IRIDIUM 25 [+]          
1 24904U 97043B   17260.93310344  .00000094  00000-0  26661-4 0  9993
2 24904  86.3981 216.6412 0002397  81.3673 278.7794 14.34216343 50917
IRIDIUM 46 [+]          
1 24905U 97043C   17261.01553343  .00000017  00000-0 -98793-6 0  9995
2 24905  86.3998 216.5963 0002725  74.1145 286.0351 14.34212838 51136
IRIDIUM 23 [+]          
1 24906U 97043D   17260.95145654  .00000096  00000-0  27261-4 0  9996
2 24906  86.3995 216.6975 0002454  84.4713 337.5968 14.34215913 50853
IRIDIUM 22 [+]          
1 24907U 97043E   17261.26289435  .00000100  00000-0  28700-4 0  9993
2 24907  86.3992 217.1833 0002322  84.6320 275.5141 14.34216714 51181
DUMMY MASS 1 [-]        
1 24925U 97048A   17261.29906767  .00000085  00000-0  66260-5 0  9991
2 24925  86.3398   0.4806 0009358  77.7681 282.4590 14.85146178 85165
DUMMY MASS 2 [-]        
1 24926U 97048B   17261.28470041  .00000084  00000-0  65930-5 0  9994
2 24926  86.3397   1.6179 0010230  83.6100 276.6288 14.84914082 85002
IRIDIUM 29 [-]          
1 24944U 97051A   17261.08781770  .00000130  00000-0  38883-4 0  9998
2 24944  86.3934 247.9945 0002336  93.9242 266.2221 14.34620453 47533
IRIDIUM 32 [+]          
1 24945U 97051B   17261.08229641 -.00000037  00000-0 -20367-4 0  9999
2 24945  86.3930 248.2384 0002283  86.1856 273.9601 14.34218499 47739
IRIDIUM 33 [-]          
1 24946U 97051C   17261.08752279  .00000101  00000-0  29568-4 0  9990
2 24946  86.3848 247.8247 0006122 312.0115  48.0559 14.33567533 47330
IRIDIUM 28 [-]          
1 24948U 97051E   17261.11167994  .00000106  00000-0  30018-4 0  9997
2 24948  86.3939 247.1609 0002188  80.9903 279.1541 14.35567807 47842
IRIDIUM 30 [-]          
1 24949U 97051F   17261.09060504  .01361458 -13905-5  10562-2 0  9999
2 24949  86.3723 244.5644 0210617 190.0430 169.6613 15.82765736 48220
IRIDIUM 31 [+]          
1 24950U 97051G   17261.06627651  .00000023  00000-0  88221-6 0  9994
2 24950  86.4193 248.3418 0002619  83.9526 276.1971 14.38602244 47811
IRIDIUM 19 [+]          
1 24965U 97056A   17261.19354044 -.00000014  00000-0 -12024-4 0  9990
2 24965  86.3918 279.8083 0002159  88.9209 271.2235 14.34219488 45884
IRIDIUM 35 [+]          
1 24966U 97056B   17261.20622463 -.00000022  00000-0 -15070-4 0  9999
2 24966  86.3917 279.7962 0002176  88.6219 271.5226 14.34219655 45582
IRIDIUM 36 [-]          
1 24967U 97056C   17261.18281139  .00000120  00000-0  34732-4 0  9991
2 24967  86.3930 278.7896 0002092  94.7999 265.3437 14.35619496 46206
IRIDIUM 37 [+]          
1 24968U 97056D   17261.18084792 -.00000021  00000-0 -14602-4 0  9994
2 24968  86.3920 279.9960 0002167  90.0166 270.1278 14.34219904 45653
IRIDIUM 34 [+]          
1 24969U 97056E   17261.19987682 -.00000019  00000-0 -13832-4 0  9997
2 24969  86.3920 279.9250 0002125  89.2100 270.9339 14.34219775 45863
IRIDIUM 43 [-]          
1 25039U 97069A   17261.47771978  .00136104  30740-5  65125-3 0  9993
2 25039  86.4023 333.7400 0251038  46.2407 315.9328 15.49097184 40975
IRIDIUM 41 [+]          
1 25040U 97069B   17261.32113289  .00000170  00000-0  53533-4 0  9999
2 25040  86.4001 343.0334 0002293  91.1408 269.0051 14.34224404 39666
IRIDIUM 40 [-]          
1 25041U 97069C   17261.50887334  .00037891 -68257-6  32815-3 0  9993
2 25041  86.3892 331.6994 0249470 283.0108  74.3401 15.38232954 41267
IRIDIUM 39 [B]          
1 25042U 97069D   17261.35697279  .00000137  00000-0  32440-4 0  9997
2 25042  86.3958 339.4693 0019123   9.9909 350.1669 14.46180123 40186
IRIDIUM 38 [-]          
1 25043U 97069E   17261.31316654  .00000110  00000-0  30946-4 0  9999
2 25043  86.4001 340.1043 0002012  54.1411 305.9972 14.36048457 40091
IRIDIUM 42 [-]          
1 25077U 97077A   17258.17152137  .00000117  00000-0  34339-4 0  9996
2 25077  86.4011 344.2851 0002063  80.7630 279.3799 14.34519276 35090
IRIDIUM 44 [-]          
1 25078U 97077B   17261.31138687  .00000108  00000-0  29124-4 0  9997
2 25078  86.3993 332.3184 0001706  40.8780 319.2546 14.38144281 37025
IRIDIUM 45 [+]          
1 25104U 97082A   17261.41214644 -.00000025  00000-0 -16042-4 0  9997
2 25104  86.3928 248.2233 0002462  61.6289 298.5155 14.34217642 33735
IRIDIUM 24 [-]          
1 25105U 97082B   17261.37497037  .00000054  00000-0  10716-4 0  9994
2 25105  86.3970 196.1122 0013230  45.1953 315.0319 14.39874235 36261
IRIDIUM 47 [+]          
1 25106U 97082C   17261.51026224  .00000106  00000-0  30806-4 0  9997
2 25106  86.3979 216.2683 0002443  84.5409 275.6066 14.34217127 33740
IRIDIUM 49 [+]          
1 25108U 97082E   17261.48005781  .00000103  00000-0  29753-4 0  9996
2 25108  86.3981 216.3861 0002375  83.9201  54.8472 14.34216610 33745
IRIDIUM 52 [+]          
1 25169U 98010A   17261.27313044  .00000121  00000-0  35970-4 0  9994
2 25169  86.3957 311.4829 0002203  95.0561 265.0887 14.34219226 25124
IRIDIUM 56 [+]          
1 25170U 98010B   17261.19702818  .00000124  00000-0  37144-4 0  9996
2 25170  86.3962 311.6299 0002142  87.0669 273.0772 14.34217836 25090
IRIDIUM 54 [+]          
1 25171U 98010C   17261.50782561  .00000129  00000-0  38871-4 0  9998
2 25171  86.3957 311.4060 0002219  95.2853 264.8596 14.34229853 25308
IRIDIUM 50 [+]          
1 25172U 98010D   17261.26044666  .00000126  00000-0  37804-4 0  9991
2 25172  86.3957 311.4654 0002256  97.2172 262.9281 14.34219094 25109
IRIDIUM 53 [+]          
1 25173U 98010E   17261.27951201  .00000128  00000-0  38574-4 0  9992
2 25173  86.3958 311.4641 0002195  94.8317 265.3130 14.34229820 25112
IRIDIUM 51 [S]          
1 25262U 98018A   17261.16181612 -.00000020  00000-0 -14205-4 0  9996
2 25262  86.3919 280.1716 0002672  90.6721 269.4781 14.34218576 24488
IRIDIUM 61 [+]          
1 25263U 98018B   17261.18719288 -.00000019  00000-0 -13857-4 0  9995
2 25263  86.3920 279.9587 0002188  88.9191 271.2255 14.34219736 20196
IRIDIUM 55 [+]          
1 25272U 98019A   17261.42042778  .00000001  00000-0 -60849-5 0  9990
2 25272  86.4187 248.0048 0002660  85.6100 274.5402 14.38596758 19431
IRIDIUM 57 [-]          
1 25273U 98019B   17261.50246237  .00000105  00000-0  30562-4 0  9998
2 25273  86.3936 248.2859 0002235  92.5935 267.5517 14.34277475 19444
IRIDIUM 58 [+]          
1 25274U 98019C   17261.42662971 -.00000017  00000-0 -12176-4 0  9992
2 25274  86.4186 248.5120 0002588  86.5193 273.6301 14.38596471 19439
IRIDIUM 59 [+]          
1 25275U 98019D   17261.38677606 -.00000016  00000-0 -12669-4 0  9995
2 25275  86.3931 248.3787 0002277  87.9801 272.1655 14.34218320 19425
IRIDIUM 60 [+]          
1 25276U 98019E   17261.39314165 -.00000031  00000-0 -18085-4 0  9990
2 25276  86.3928 247.9920 0002230  84.7849 275.3602 14.34217455 19427
IRIDIUM 62 [+]          
1 25285U 98021A   17261.42441553  .00000168  00000-0  52905-4 0  9997
2 25285  86.4018 184.9506 0002347  82.2012 277.9450 14.34222682 18383
IRIDIUM 63 [-]          
1 25286U 98021B   17261.42006646  .00000100  00000-0  28527-4 0  9997
2 25286  86.4048 185.3664 0002293  87.4866  31.3295 14.34681816 18412
